CUTE-1 (CO-55)          
1 27844U 03031E   19123.57080801  .00000047  00000-0  40818-4 0  9993
2 27844  98.6854 132.4713 0010270 158.1646 201.9971 14.22173442821694
CUBESAT XI-IV (CO-57)   
1 27848U 03031J   19123.47944456  .00000031  00000-0  33986-4 0  9992
2 27848  98.6932 132.8710 0009937 169.2670 190.8721 14.21769031821541
CUBESAT XI-V            
1 28895U 05043F   19123.36356097  .00000103  00000-0  28580-4 0  9990
2 28895  97.9517 267.7016 0017885 134.9724 225.2932 14.63654593720718
CUTE-1.7+APD II (CO-65) 
1 32785U 08021C   19123.90029973  .00000196  00000-0  26791-4 0  9996
2 32785  97.5496 125.7758 0014453  58.7307 301.5324 14.88287994596872
AAUSAT-II               
1 32788U 08021F   19123.72563841  .00000804  00000-0  79057-4 0  9995
2 32788  97.4996 141.4854 0011675   2.8823 357.2463 14.94679364598054
DELFI-C3 (DO-64)        
1 32789U 08021G   19123.79978368  .00001001  00000-0  71176-4 0  9991
2 32789  97.4689 174.8419 0010459 283.6350  76.3713 15.06843329600053
SEEDS II (CO-66)        
1 32791U 08021J   19124.06277774  .00000212  00000-0  26895-4 0  9999
2 32791  97.5290 131.8543 0014280  36.0376 324.1803 14.90788790597310
SWISSCUBE               
1 35932U 09051B   19123.69968167  .00000108  00000-0  35464-4 0  9990
2 35932  98.5831 288.3383 0006596 312.7171  47.3470 14.56269532510083
BEESAT-1                
1 35933U 09051C   19123.70550215  .00000086  00000-0  30364-4 0  9993
2 35933  98.5862 290.0803 0005045 330.5090  29.5822 14.56360623510199
ITUPSAT1                
1 35935U 09051E   19123.87417956  .00000068  00000-0  26845-4 0  9996
2 35935  98.5973 290.4950 0007279 323.1147  36.9548 14.55522692509979
TISAT 1                 
1 36799U 10035E   19123.84874724  .00000313  00000-0  37766-4 0  9993
2 36799  98.1492 274.4984 0011223 232.0957 127.9246 14.91067891477931
M-CUBED & EXP-1 PRIME   
1 37855U 11061F   19123.67164578  .00000898  00000-0  53082-4 0  9994
2 37855 101.7210 355.6384 0173785 213.1901 145.8314 15.05304391409857
STRAND-1                
1 39090U 13009E   19123.56019171  .00000053  00000-0  33658-4 0  9997
2 39090  98.4931 330.2817 0010319  68.7923 291.4364 14.35080979323777
SOMP                    
1 39134U 13015E   19123.50447963  .00000990  00000-0  54841-4 0  9998
2 39134  64.8625 170.0632 0026592 310.0254  49.8540 15.20032734333579
BEESAT-3                
1 39135U 13015F   19123.54262497  .00000750  00000-0  47200-4 0  9995
2 39135  64.8660 187.5969 0014298 322.6156  37.3974 15.17359171332851
BEESAT-2                
1 39136U 13015G   19124.22180258  .00000795  00000-0  50158-4 0  9991
2 39136  64.8691 189.0878 0015333 312.0886  47.8935 15.16805325333272
NEE-01 PEGASO           
1 39151U 13018B   19124.17938872  .00000127  00000-0  23759-4 0  9994
2 39151  97.9690 220.9392 0016757 354.3006   5.8012 14.80029071324990
ESTCUBE 1               
1 39161U 13021C   19124.18504674  .00000138  00000-0  29780-4 0  9991
2 39161  97.9872 209.8577 0010870 109.0905 251.1494 14.72186727321672
POPACS 1                
1 39268U 13055D   19123.41936656  .00005800  00000-0  16083-3 0  9992
2 39268  81.0053   9.7935 0628096   0.7815 359.4197 14.36650404290396
POPACS 2                
1 39269U 13055E   19124.19481932  .00003530  00000-0  10023-3 0  9997
2 39269  81.0184  37.6984 0686349  72.8332 294.6778 14.23651890288797
POPACS 3                
1 39270U 13055F   19124.09066005  .00001404  00000-0  42162-4 0  9996
2 39270  81.0190  53.9955 0715720 120.1850 247.2202 14.15672072287749
ZACUBE-1 (TSHEPISOSAT)  
1 39417U 13066B   19123.90015796  .00000190  00000-0  30274-4 0  9993
2 39417  97.5650 139.9702 0058917 182.6107 177.4807 14.81092321294262
WNISAT-1                
1 39423U 13066H   19123.84036075  .00000046  00000-0  18336-4 0  9991
2 39423  97.7725  68.9914 0176632  96.2005 265.9348 14.53031859288794
TRITON-1                
1 39427U 13066M   19123.50924493  .00000178  00000-0  36598-4 0  9994
2 39427  97.6727 103.7502 0112767 313.9543  45.2402 14.67819096291566
GOMX-1                  
1 39430U 13066Q   19124.29828279  .00000215  00000-0  47611-4 0  9990
2 39430  97.7416  83.8521 0152446  37.7524 323.4266 14.59230448289984
CUBEBUG-2 (LO-74)       
1 39440U 13066AA  19123.51174522  .00000167  00000-0  30404-4 0  9998
2 39440  97.6021 124.6772 0078998 234.3451 125.0386 14.75831889293169
NEE-02 KRYSAOR          
1 39441U 13066AB  19123.93250311  .00000107  00000-0  22419-4 0  9997
2 39441  97.6056 122.9033 0080416 239.7912 119.5317 14.74890980293054
FUNCUBE-1 (AO-73)       
1 39444U 13066AE  19124.06099117  .00000227  00000-0  34230-4 0  9997
2 39444  97.5634 142.0221 0058245 176.1132 184.0546 14.81906087293171
UWE-3                   
1 39446U 13066AG  19123.79809442  .00000172  00000-0  29520-4 0  9993
2 39446  97.5824 131.9123 0069284 208.6908 151.0485 14.78365961292484
BRITE-CA1 (TORONTO)     
1 40020U 14033L   19124.10171538 -.00000006  00000-0  76016-5 0  9992
2 40020  97.7517 330.4515 0086252 302.5452  56.7442 14.66566625260619
DUCHIFAT-1              
1 40021U 14033M   19123.36002978  .00000257  00000-0  32134-4 0  9990
2 40021  97.9237  47.8034 0012264 196.8215 163.2597 14.90589485264647
NANOSATC-BR1            
1 40024U 14033Q   19123.56397276  .00000211  00000-0  27911-4 0  9990
2 40024  97.9139  45.5463 0011527 199.1773 160.9012 14.89809162264054
QB50P1                  
1 40025U 14033R   19123.59850960  .00000261  00000-0  33760-4 0  9992
2 40025  97.9067  43.3561 0011671 205.4491 154.6152 14.88914107263956
QB50P2                  
1 40032U 14033Y   19123.58575525  .00000240  00000-0  31928-4 0  9991
2 40032  97.8996  41.5807 0011156 201.0764 158.9994 14.88451135263868
PERSEUS-M2              
1 40037U 14033AD  19123.31268208  .00000050  00000-0  11857-4 0  9992
2 40037  97.8934  37.7298 0013456 215.9123 144.1189 14.86446837264083
PERSEUS-M1              
1 40039U 14033AF  19123.75592165  .00000075  00000-0  14821-4 0  9995
2 40039  97.8919  37.3104 0013394 211.3865 148.6552 14.86067254264089
POLYITAN-1              
1 40042U 14033AJ  19124.19122115  .00000285  00000-0  36599-4 0  9991
2 40042  97.9146  44.2324 0014085 193.7203 166.3633 14.88625822264466
TIGRISAT                
1 40043U 14033AK  19124.21823990  .00000123  00000-0  25776-4 0  9990
2 40043  97.7642 353.9794 0058613 243.0747 116.4467 14.74252770261904
AEROCUBE 6A             
1 40045U 14033AM  19123.65098728  .00000245  00000-0  42735-4 0  9991
2 40045  97.7860 357.0046 0056450 237.9798 121.5920 14.75358171261777
AEROCUBE 6B             
1 40046U 14033AN  19124.19815185  .00000216  00000-0  38582-4 0  9999
2 40046  97.7799 357.1949 0055763 235.3171 124.2777 14.75339165261991
UKUBE-1                 
1 40074U 14037F   19124.18613636  .00000289  00000-0  41927-4 0  9997
2 40074  98.4315 283.5765 0005311  21.2018 338.9391 14.84020618260904
BRITE-PL2 (HEWELIUSZ)   
1 40119U 14049B   19124.21969893  .00000091  00000-0  17247-4 0  9992
2 40119  97.9031 215.2622 0017691  14.4792 345.6926 14.84392743254929
FIREBIRD 4              
1 40378U 15003C   19124.14472475  .00001210  00000-0  52055-4 0  9997
2 40378  99.1104  95.1522 0126712 241.8944 116.9430 15.18618224235016
GRIFEX                  
1 40379U 15003D   19123.90474513  .00000960  00000-0  45529-4 0  9995
2 40379  99.1089  89.2122 0134479 260.5230  98.0777 15.15356457234651
EXOCUBE (CP10)          
1 40380U 15003E   19123.43174700  .00000988  00000-0  48736-4 0  9993
2 40380  99.1111  85.5530 0139339 272.5540  85.9742 15.13394187234374
TIANWANG 1C (TW-1C)     
1 40926U 15051B   19124.09169589  .00010990  00000-0  16677-3 0  9996
2 40926  97.1415 170.3417 0009149 168.0220 249.5054 15.54723533203074
TIANWANG 1A (TW-1A)     
1 40928U 15051D   19124.08671030  .00002852  00000-0  72283-4 0  9990
2 40928  97.1510 156.3999 0009660 232.3922 183.7653 15.40488860202151
EXACTVIEW 9             
1 40936U 15052G   19124.08998221  .00000766  00000-0  17989-4 0  9998
2 40936   6.0045  26.1976 0010909 219.3955 140.5379 14.76476130194476
ATHENOXAT 1             
1 41168U 15077C   19123.57647501  .00001795  00000-0  59911-4 0  9992
2 41168  14.9873 194.0121 0011571 172.2641 187.7860 15.13529245186986
GALASSIA                
1 41170U 15077E   19124.23867040  .00001836  00000-0  61336-4 0  9991
2 41170  14.9879 182.4802 0012820 205.8502 154.1179 15.13865618187146
VELOX-II                
1 41171U 15077F   19123.89097108  .00001418  00000-0  43434-4 0  9998
2 41171  14.9904 216.3011 0008830 120.5557 239.5635 15.11149498186811
HORYU-4                 
1 41340U 16012D   19123.22889308  .00000502  00000-0  31471-4 0  9995
2 41340  31.0052  70.0481 0013862  27.8775 332.2601 15.01232817176024
E-ST@R-II               
1 41459U 16025D   19124.00759953  .00001186  00000-0  64392-4 0  9996
2 41459  98.1022 208.2300 0169798 151.3486 209.7205 15.05296525165670
AAUSAT 4                
1 41460U 16025E   19124.17233838  .00003792  00000-0  19243-3 0  9994
2 41460  98.0982 209.5289 0159612 144.2571 216.9488 15.07127005165813
DIWATA-1                
1 41463U 98067HT  19124.23784380  .00021618  00000-0  11840-3 0  9995
2 41463  51.6295 122.7464 0002416  33.1690  75.7834 15.79764687172586
BEESAT-4                
1 41619U 16040W   19124.11675379  .00001315  00000-0  58823-4 0  9998
2 41619  97.3712 187.1825 0011547 175.2380 184.8969 15.22990786146924
CANX-7                  
1 41788U 16059F   19124.16365175  .00007675  00000-0  11796-2 0  9991
2 41788  98.2347 198.8385 0032655 152.5667 207.7262 14.73461271139306
RAVAN                   
1 41849U 16067B   19123.77575992 -.00000048  00000-0  10956-5 0  9992
2 41849  97.9185 222.2288 0008567 162.9617 197.1894 14.98182456135120
CELTEE 1                
1 41850U 16067C   19124.22017863  .00000817  00000-0  76300-4 0  9990
2 41850  97.9143 221.4814 0009307 164.1584 195.9930 14.96987723135127
